STARLINK-1007
1 44713U 19074A   24156.82459657  .00000816  00000+0  73650-4 0  9993
2 44713  53.0529 192.5476 0001172  90.8030 269.3093 15.06396363251855
STARLINK-1008
1 44714U 19074B   24157.13517451  .00006350  00000+0  44491-3 0  9995
2 44714  53.0519 191.1521 0001241  97.6985 262.4145 15.06393120252077
STARLINK-1009
1 44715U 19074C   24156.79237041 -.00000485  00000+0 -13676-4 0  9998
2 44715  53.0545 192.6942 0001336  86.7518 273.3623 15.06397043251840
STARLINK-1010
1 44716U 19074D   24156.81079537  .00000435  00000+0  48119-4 0  9999
2 44716  53.0530 192.6103 0001258  88.5207 271.5926 15.06398836251838
STARLINK-1011
1 44717U 19074E   24157.14069345  .00002181  00000+0  16523-3 0  9996
2 44717  53.0519 211.1316 0001388  83.4011 276.7135 15.06408079251795
STARLINK-1012
1 44718U 19074F   24157.11304615  .00000489  00000+0  51726-4 0  9990
2 44718  53.0544 191.2543 0001249  90.2049 269.9083 15.06391887252062
STARLINK-1013
1 44719U 19074G   24156.78868221  .00000861  00000+0  76681-4 0  9992
2 44719  53.0538 192.7133 0001317  87.2149 272.8991 15.06398345252977
STARLINK-1014
1 44720U 19074H   24156.80326624  .00003063  00000+0  20452-3 0  9994
2 44720  53.0544 191.2199 0001817 358.2830   1.8154 15.09912079252043
STARLINK-1015
1 44721U 19074J   24157.39288670  .00004371  00000+0  31142-3 0  9999
2 44721  53.0523 189.9952 0001247  84.9736 275.1395 15.06489786252108
STARLINK-1017
1 44723U 19074L   24157.41160200  .00001567  00000+0  12409-3 0  9991
2 44723  53.0535 189.9105 0001175  88.7094 271.4029 15.06400026252116
STARLINK-1019
1 44724U 19074M   24156.37954447  .00000960  00000+0  83328-4 0  9995
2 44724  53.0533 194.5467 0001317  88.9534 271.1605 15.06399061251782
STARLINK-1020
1 44725U 19074N   24157.44662594  .00002570  00000+0  19136-3 0  9998
2 44725  53.0540 209.7597 0001336  94.3521 265.7620 15.06393588251832
STARLINK-1021
1 44726U 19074P   24156.84028171  .00001074  00000+0  90977-4 0  9990
2 44726  53.0533 192.4771 0001250  92.3302 267.7830 15.06400234251851
STARLINK-1027
1 44732U 19074V   24157.43557924  .00001924  00000+0  14809-3 0  9999
2 44732  53.0527 209.8143 0001300  81.1425 278.9711 15.06386482251833
STARLINK-1028
1 44733U 19074W   24157.10199101  .00000727  00000+0  67683-4 0  9992
2 44733  53.0535 191.3078 0001135  86.3063 273.8055 15.06392672252065
STARLINK-1029
1 44734U 19074X   24157.24944945 -.00000373  00000+0 -61344-5 0  9990
2 44734  53.0549 110.6410 0001545  98.2261 261.8904 15.06386352253184
STARLINK-1030
1 44735U 19074Y   24157.17755188  .00001450  00000+0  11621-3 0  9998
2 44735  53.0522 210.9624 0001659  81.8000 278.3177 15.06405423251793
STARLINK-1031
1 44736U 19074Z   24157.52402984  .00001585  00000+0  12525-3 0  9994
2 44736  53.0546 209.4118 0001188  84.8963 275.2162 15.06397539251854
STARLINK-1032
1 44737U 19074AA  24157.46874164  .00000837  00000+0  75088-4 0  9994
2 44737  53.0527 209.6587 0001297  92.9697 267.1441 15.06406193251847
STARLINK-1035
1 44740U 19074AD  24157.39870619 -.00001736  00000+0 -97692-4 0  9997
2 44740  53.0527 209.9825 0001220  89.5482 270.5646 15.06400769251836
STARLINK-1036
1 44741U 19074AE  24157.14438023  .00003907  00000+0  28100-3 0  9997
2 44741  53.0517 211.1134 0001272  87.3436 272.7698 15.06406227251797
STARLINK-1038
1 44743U 19074AG  24157.19413450  .00002495  00000+0  18641-3 0  9991
2 44743  53.0522 230.8905 0002092  81.3566 278.7660 15.06383234251526
STARLINK-1039
1 44744U 19074AH  24157.20520670  .00003777  00000+0  27237-3 0  9992
2 44744  53.0535 230.8446 0001856  84.5734 275.5466 15.06396501251520
STARLINK-1041
1 44746U 19074AK  24157.20232784 -.00002703  00000+0 -17458-4 0  9995
2 44746  53.0515 221.0355 0001361  89.1809 270.9364 15.69698229251668
STARLINK-1042
1 44747U 19074AL  24157.22237207  .00037265  00000+0  18454-2 0  9997
2 44747  53.0557 225.9275 0003492   4.5120 355.5904 15.17445558251605
STARLINK-1043
1 44748U 19074AM  24157.51481484 -.00000533  00000+0 -16932-4 0  9999
2 44748  53.0531 229.4530 0001058 100.2613 259.8495 15.06395050251574
STARLINK-1046
1 44751U 19074AQ  24157.19782693  .00004055  00000+0  29096-3 0  9998
2 44751  53.0523 230.8749 0001340  94.1668 265.9474 15.06398368251527
STARLINK-1047
1 44752U 19074AR  24157.41714740  .00001328  00000+0  10804-3 0  9999
2 44752  53.0529 209.8889 0001023  89.1871 270.9235 15.06382741251836
STARLINK-1048
1 44753U 19074AS  24156.82553960  .00001181  00000+0  98159-4 0  9996
2 44753  53.0532 192.5441 0001264  87.2364 272.8769 15.06398118251856
STARLINK-1052
1 44757U 19074AW  24157.13115476  .00011727  00000+0  48233-3 0  9995
2 44757  53.0347 194.7906 0002263 273.5669  86.5069 15.24592708252026
STARLINK-1053
1 44758U 19074AX  24157.51113736  .00003792  00000+0  27334-3 0  9997
2 44758  53.0535 229.5560 0001239  83.5266 276.5864 15.06398355251578
STARLINK-1054
1 44759U 19074AY  24157.22731393 -.00003786  00000+0 -23554-3 0  9996
2 44759  53.0542 230.7425 0001167  80.4553 279.6568 15.06382621251536
STARLINK-1055
1 44760U 19074AZ  24156.77300429  .00015265  00000+0  49501-3 0  9992
2 44760  53.0110 184.0606 0005793 301.4933  58.5500 15.32181926251981
STARLINK-1056
1 44761U 19074BA  24157.22362056  .00003116  00000+0  22792-3 0  9993
2 44761  53.0535 230.7571 0001556  87.9839 272.1328 15.06408780251531
STARLINK-1057
1 44762U 19074BB  24157.42451165  .00002356  00000+0  17696-3 0  9998
2 44762  53.0542 209.8576 0001526  95.4929 264.6234 15.06412171251837
STARLINK-1058
1 44763U 19074BC  24157.47798580 -.00003144  00000+0 -19226-3 0  9998
2 44763  53.0535 229.9623 0001073  98.3152 261.7959 15.06398567251567
STARLINK-1059
1 44764U 19074BD  24157.23315121  .00022982  00000+0  58743-3 0  9995
2 44764  53.0761 141.2146 0005348  23.0468 337.0775 15.39366769252816
STARLINK-1060
1 44765U 19074BE  24157.43924993  .00000234  00000+0  34579-4 0  9999
2 44765  53.0537 209.7898 0001329  91.1837 268.9305 15.06395042251835
STARLINK-1061
1 44766U 19074BF  24157.50374630  .00001017  00000+0  87180-4 0  9991
2 44766  53.0545 229.5037 0001072  94.2788 265.8323 15.06398783251576
STARLINK-1062
1 44767U 19074BG  24157.48197193  .00002130  00000+0  16883-3 0  9994
2 44767  53.0536 230.1442 0001293  89.5814 270.5322 15.04763476251561
STARLINK-1063
1 44768U 19074BH  24157.18676653 -.00001036  00000+0 -50661-4 0  9994
2 44768  53.0523 230.9219 0001453  87.3078 272.8078 15.06395909251527
STARLINK-1067
1 44771U 19074BL  24157.50745049  .00001705  00000+0  13333-3 0  9995
2 44771  53.0535 229.4870 0001025  78.0714 282.0390 15.06391178251578
STARLINK-1068
1 44772U 19074BM  24157.16648715 -.00003786  00000+0 -23538-3 0  9991
2 44772  53.0526 211.0143 0001610  88.7127 271.4046 15.06405138251791
STARLINK-1073
1 44914U 20001A   24157.24942364  .00002295  00000+0  17293-3 0  9990
2 44914  53.0545 350.6403 0002585  79.9109 280.2171 15.06401759243011
STARLINK-1084
1 44915U 20001B   24157.54429345  .00001327  00000+0  10796-3 0  9999
2 44915  53.0568 349.3158 0001829  96.4903 263.6294 15.06395669243063
STARLINK-1098
1 44917U 20001D   24157.54798143  .00001056  00000+0  89810-4 0  9999
2 44917  53.0507 349.2982 0002089  88.2416 271.8812 15.06398175243061
STARLINK-1099
1 44918U 20001E   24156.60834269  .00104380  00000+0  80583-3 0  9997
2 44918  53.0470 280.9664 0001401 300.2665  59.8213 15.71146731244688
STARLINK-1102
1 44920U 20001G   24157.09502850  .00019911  00000+0  60433-3 0  9999
2 44920  53.0515 292.3959 0002225 303.4259  56.6529 15.34109819243830
STARLINK-1103
1 44921U 20001H   24157.52492002  .00001136  00000+0  95149-4 0  9998
2 44921  53.0521 349.3644 0002055  77.2102 282.9116 15.06394879243035
STARLINK-1104
1 44922U 20001J   24157.56272774 -.00002997  00000+0 -18240-3 0  9999
2 44922  53.0537 349.2335 0001888  85.2718 274.8487 15.06387494243063
STARLINK-1106
1 44923U 20001K   24156.84138088  .00018442  00000+0  66302-3 0  9991
2 44923  53.0166 309.1995 0004737 168.8922 191.2182 15.28688483243565
STARLINK-1111
1 44924U 20001L   24157.00001157  .01070241  00000+0  66758-2 0  9997
2 44924  53.0495 323.3062 0001050  62.5416  55.2740 15.73755385  6020
STARLINK-1112
1 44925U 20001M   24157.52586436  .00001306  00000+0  10657-3 0  9996
2 44925  53.0491 349.3997 0001805  76.1673 283.9517 15.06398364243050
STARLINK-1113
1 44926U 20001N   24156.84901664  .00050858  00000+0  67639-3 0  9993
2 44926  53.0530 329.0865 0004141 186.7446 173.3510 15.57692079243978
STARLINK-1114
1 44927U 20001P   24156.80710451  .00007218  00000+0  50273-3 0  9990
2 44927  53.0547 352.6268 0001233  87.7997 272.3133 15.06417323242955
STARLINK-1123
1 44930U 20001S   24157.55166674  .00002135  00000+0  16219-3 0  9994
2 44930  53.0519 349.2821 0002393  89.5753 270.5510 15.06396284243067
STARLINK-1128
1 44931U 20001T   24157.58334491  .00148138  00000+0  19194-2 0  9990
2 44931  53.0374 294.4583 0008890 260.9587  22.6489 15.57860337244581
STARLINK-1130 (DARKSAT)
1 44932U 20001U   24157.27521677  .00002253  00000+0  17002-3 0  9995
2 44932  53.0483 350.5238 0001033  94.3225 265.7882 15.06408666244252
STARLINK-1144
1 44933U 20001V   24157.23466368  .00006499  00000+0  45448-3 0  9998
2 44933  53.0567 350.7097 0000234  35.6877 324.4128 15.06420890244309
STARLINK-1071
1 44934U 20001W   24156.78313396  .00003376  00000+0  24529-3 0  9998
2 44934  53.0534 332.7354 0001167  91.6992 268.4130 15.06416499243226
STARLINK-1079
1 44937U 20001Z   24156.87022970  .00047014  00000+0  24163-2 0  9996
2 44937  53.0539 327.9334 0001603 128.7205 231.3932 15.16036762243302
STARLINK-1082
1 44938U 20001AA  24157.39434281  .00023825  00000+0  19627-3 0  9991
2 44938  53.0529 297.9953 0001553  76.1834 283.9355 15.70277943243752
STARLINK-1083
1 44939U 20001AB  24157.13896572  .00003251  00000+0  32799-4 0  9996
2 44939  53.0578 314.8350 0000927 251.2950 108.7965 15.68822769243497
STARLINK-1091
1 44940U 20001AC  24157.47610678  .00000064  00000+0  23266-4 0  9994
2 44940  53.0476 329.6232 0003143  85.9725 274.1623 15.06399796243326
STARLINK-1094
1 44941U 20001AD  24156.76839410  .00005075  00000+0  35919-3 0  9997
